{
  "type": "FeatureCollection",
  "features": [
    {
      "type": "Feature",
      "properties": {
        "norad_id": 48859,
        "name": "GPS BIII-5  (PRN 11)",
        "group": "gps-ops",
        "lat": 55.20555940860703,
        "lon": 72.66179103846575,
        "alt_km": 20228.35839934317,
        "timestamp": "2025-12-16T03:53:27.314437+00:00",
        "meta_object_name": "GPS BIII-5  (PRN 11)",
        "meta_object_id": "2021-054A",
        "meta_epoch": "2025-12-08T04:14:32.423424",
        "meta_mean_motion": 2.00553627,
        "meta_eccentricity": 0.0024678,
        "meta_inclination": 55.2581,
        "meta_ra_of_asc_node": 340.1367,
        "meta_arg_of_pericenter": 233.3994,
        "meta_mean_anomaly": 212.8593,
        "meta_ephemeris_type": 0,
        "meta_classification_type": "U",
        "meta_norad_cat_id": 48859,
        "meta_element_set_no": 999,
        "meta_rev_at_epoch": 3292,
        "meta_bstar": 0,
        "meta_mean_motion_dot": -8.6e-07,
        "meta_mean_motion_ddot": 0,
        "tle_line1": "1 48859U 21054A   25342.17676416 -.00000086  00000+0  00000+0 0  9993",
        "tle_line2": "2 48859  55.2581 340.1367 0024678 233.3994 212.8593  2.00553627 32922"
      },
      "geometry": {
        "type": "Point",
        "coordinates": [
          72.66179103846575,
          55.20555940860703
        ]
      }
    },
    {
      "type": "Feature",
      "properties": {
        "norad_id": 55268,
        "name": "GPS BIII-6  (PRN 28)",
        "group": "gps-ops",
        "lat": 35.93295369072118,
        "lon": -54.69828670255802,
        "alt_km": 20185.707693706907,
        "timestamp": "2025-12-16T03:53:27.314450+00:00",
        "meta_object_name": "GPS BIII-6  (PRN 28)",
        "meta_object_id": "2023-009A",
        "meta_epoch": "2025-12-13T12:37:03.021024",
        "meta_mean_motion": 2.00555696,
        "meta_eccentricity": 0.00037118,
        "meta_inclination": 55.1051,
        "meta_ra_of_asc_node": 155.8142,
        "meta_arg_of_pericenter": 357.4368,
        "meta_mean_anomaly": 33.2544,
        "meta_ephemeris_type": 0,
        "meta_classification_type": "U",
        "meta_norad_cat_id": 55268,
        "meta_element_set_no": 999,
        "meta_rev_at_epoch": 2152,
        "meta_bstar": 0,
        "meta_mean_motion_dot": 1e-06,
        "meta_mean_motion_ddot": 0,
        "tle_line1": "1 55268U 23009A   25347.52572941  .00000100  00000+0  00000+0 0  9995",
        "tle_line2": "2 55268  55.1051 155.8142 0003711 357.4368  33.2544  2.00555696 21528"
      },
      "geometry": {
        "type": "Point",
        "coordinates": [
          -54.69828670255802,
          35.93295369072118
        ]
      }
    },
    {
      "type": "Feature",
      "properties": {
        "norad_id": 62339,
        "name": "GPS BIII-7  (PRN 01)",
        "group": "gps-ops",
        "lat": -25.476829291373843,
        "lon": -178.84346584851423,
        "alt_km": 20207.630341827866,
        "timestamp": "2025-12-16T03:53:27.314462+00:00",
        "meta_object_name": "GPS BIII-7  (PRN 01)",
        "meta_object_id": "2024-242A",
        "meta_epoch": "2025-12-14T08:53:45.951936",
        "meta_mean_motion": 2.00568038,
        "meta_eccentricity": 0.00123465,
        "meta_inclination": 54.9231,
        "meta_ra_of_asc_node": 341.6736,
        "meta_arg_of_pericenter": 345.1042,
        "meta_mean_anomaly": 13.136,
        "meta_ephemeris_type": 0,
        "meta_classification_type": "U",
        "meta_norad_cat_id": 62339,
        "meta_element_set_no": 999,
        "meta_rev_at_epoch": 754,
        "meta_bstar": 0,
        "meta_mean_motion_dot": -9.1e-07,
        "meta_mean_motion_ddot": 0,
        "tle_line1": "1 62339U 24242A   25348.37067074 -.00000091  00000+0  00000+0 0  9992",
        "tle_line2": "2 62339  54.9231 341.6736 0012346 345.1042  13.1360  2.00568038  7546"
      },
      "geometry": {
        "type": "Point",
        "coordinates": [
          -178.84346584851423,
          -25.476829291373843
        ]
      }
    },
    {
      "type": "Feature",
      "properties": {
        "norad_id": 64202,
        "name": "GPS BIII-8  (PRN 21)",
        "group": "gps-ops",
        "lat": 32.68336582762205,
        "lon": 65.09310419489643,
        "alt_km": 20179.472281966882,
        "timestamp": "2025-12-16T03:53:27.314474+00:00",
        "meta_object_name": "GPS BIII-8  (PRN 21)",
        "meta_object_id": "2025-116A",
        "meta_epoch": "2025-12-14T02:46:13.653120",
        "meta_mean_motion": 2.00558299,
        "meta_eccentricity": 0.00056153,
        "meta_inclination": 55.1067,
        "meta_ra_of_asc_node": 38.5851,
        "meta_arg_of_pericenter": 308.147,
        "meta_mean_anomaly": 55.2369,
        "meta_ephemeris_type": 0,
        "meta_classification_type": "U",
        "meta_norad_cat_id": 64202,
        "meta_element_set_no": 999,
        "meta_rev_at_epoch": 416,
        "meta_bstar": 0,
        "meta_mean_motion_dot": -9.6e-07,
        "meta_mean_motion_ddot": 0,
        "tle_line1": "1 64202U 25116A   25348.11543580 -.00000096  00000+0  00000+0 0  9992",
        "tle_line2": "2 64202  55.1067  38.5851 0005615 308.1470  55.2369  2.00558299  4161"
      },
      "geometry": {
        "type": "Point",
        "coordinates": [
          65.09310419489643,
          32.68336582762205
        ]
      }
    }
  ]
}